[{"OBJECT_NAME":"STARLINK-31181","OBJECT_ID":"2024-005U","EPOCH":"2026-03-09T08:57:15.242976","MEAN_MOTION":15.27582211,"ECCENTRICITY":0.0002025,"INCLINATION":43.0097,"RA_OF_ASC_NODE":69.3095,"ARG_OF_PERICENTER":287.65,"MEAN_ANOMALY":72.413,"EPHEMERIS_TYPE":0,"CLASSIFICATION_TYPE":"U","NORAD_CAT_ID":58746,"ELEMENT_SET_NO":999,"REV_AT_EPOCH":12223,"BSTAR":-2.6716241e-5,"MEAN_MOTION_DOT":-9.98e-6,"MEAN_MOTION_DDOT":0},{"OBJECT_NAME":"CZ-6A DEB","OBJECT_ID":"2024-140RH","EPOCH":"2026-03-09T12:32:13.567200","MEAN_MOTION":15.23024459,"ECCENTRICITY":0.01073082,"INCLINATION":88.6757,"RA_OF_ASC_NODE":253.1302,"ARG_OF_PERICENTER":74.0491,"MEAN_ANOMALY":287.2547,"EPHEMERIS_TYPE":0,"CLASSIFICATION_TYPE":"U","NORAD_CAT_ID":61163,"ELEMENT_SET_NO":999,"REV_AT_EPOCH":8457,"BSTAR":0.0019108924,"MEAN_MOTION_DOT":0.00053105,"MEAN_MOTION_DDOT":0}]
